[{"OBJECT_NAME":"STARLINK-32688","OBJECT_ID":"2024-229B","EPOCH":"2026-03-09T21:43:43.904064","MEAN_MOTION":15.27587362,"ECCENTRICITY":0.00021729,"INCLINATION":43.0005,"RA_OF_ASC_NODE":269.5579,"ARG_OF_PERICENTER":250.8853,"MEAN_ANOMALY":109.1764,"EPHEMERIS_TYPE":0,"CLASSIFICATION_TYPE":"U","NORAD_CAT_ID":62193,"ELEMENT_SET_NO":999,"REV_AT_EPOCH":7059,"BSTAR":0.0011159597,"MEAN_MOTION_DOT":0.00030582,"MEAN_MOTION_DDOT":0},{"OBJECT_NAME":"TRANSPORTER-1 OBJECT AA","OBJECT_ID":"2021-006AA","EPOCH":"2026-03-09T22:58:14.761920","MEAN_MOTION":15.29982294,"ECCENTRICITY":0.00086604,"INCLINATION":97.2381,"RA_OF_ASC_NODE":112.457,"ARG_OF_PERICENTER":185.709,"MEAN_ANOMALY":174.4054,"EPHEMERIS_TYPE":0,"CLASSIFICATION_TYPE":"U","NORAD_CAT_ID":47437,"ELEMENT_SET_NO":999,"REV_AT_EPOCH":28414,"BSTAR":0.0002197941,"MEAN_MOTION_DOT":6.312e-5,"MEAN_MOTION_DDOT":0}]
